[{"OBJECT_NAME":"STARLINK-1962","OBJECT_ID":"2021-009R","EPOCH":"2026-03-09T22:00:01.999584","MEAN_MOTION":15.62051147,"ECCENTRICITY":0.0008374,"INCLINATION":53.0458,"RA_OF_ASC_NODE":355.4518,"ARG_OF_PERICENTER":84.9109,"MEAN_ANOMALY":208.5785,"EPHEMERIS_TYPE":0,"CLASSIFICATION_TYPE":"U","NORAD_CAT_ID":47563,"ELEMENT_SET_NO":999,"REV_AT_EPOCH":592,"BSTAR":0.0016301581,"MEAN_MOTION_DOT":0.00147576,"MEAN_MOTION_DDOT":0},{"OBJECT_NAME":"FLOCK 4Q-1","OBJECT_ID":"2023-174Q","EPOCH":"2026-03-09T17:06:04.430592","MEAN_MOTION":15.63590524,"ECCENTRICITY":0.00067833,"INCLINATION":97.3805,"RA_OF_ASC_NODE":157.9237,"ARG_OF_PERICENTER":161.7688,"MEAN_ANOMALY":198.3815,"EPHEMERIS_TYPE":0,"CLASSIFICATION_TYPE":"U","NORAD_CAT_ID":58270,"ELEMENT_SET_NO":999,"REV_AT_EPOCH":13037,"BSTAR":0.00092764975,"MEAN_MOTION_DOT":0.00086779,"MEAN_MOTION_DDOT":0}]
